SMILE                   
1 69123U 26109A   26158.38327019 -.00000041  00000+0 -36778-3 0  9994
2 69123  69.9787 209.3069 3310191 288.5544  45.7342  7.54049028  2480
STARLINK-37726          
1 69124U 26110A   26169.52504277  .00044021  00000+0  80542-3 0  9990
2 69124  97.2840   5.7550 0001188  95.4062 264.7325 15.49229381  5806
STARLINK-37722          
1 69125U 26110B   26169.58334491 -.00001725  00000+0 -51177-4 0  9995
2 69125  97.2851   5.9428 0001735  70.3726 192.3788 15.33412892  5928
STARLINK-37715          
1 69126U 26110C   26169.47864619  .00012091  00000+0  37614-3 0  9999
2 69126  97.2833   5.8201 0002387  90.8618 269.2898 15.33452532  5806
STARLINK-37706          
1 69127U 26110D   26169.47592592  .00012194  00000+0  37933-3 0  9996
2 69127  97.2842   5.8238 0002235  85.8620 274.2879 15.33451472  5803
STARLINK-37723          
1 69128U 26110E   26169.47320840  .00017853  00000+0  55384-3 0  9999
2 69128  97.2841   5.8276 0002307  82.6350 277.5155 15.33452538  5807
STARLINK-37720          
1 69129U 26110F   26169.51626059  .00042808  00000+0  78347-3 0  9998
2 69129  97.2854   5.7654 0001799  91.7793 268.3665 15.49225361  5800
STARLINK-37533          
1 69130U 26110G   26169.53030858  .00019116  00000+0  59319-3 0  9992
2 69130  97.2860   5.9035 0001195  97.7640 262.3739 15.33432731  5812
STARLINK-37530          
1 69131U 26110H   26169.52758819  .00011131  00000+0  34653-3 0  9999
2 69131  97.2845   5.9052 0002435  84.0723 276.0797 15.33448440  5814
STARLINK-37660          
1 69132U 26110J   26169.58334491 -.00007970  00000+0 -21860-3 0  9996
2 69132  97.2851   5.9600 0001741  81.8762 223.8981 15.36990869  5879
STARLINK-37633          
1 69133U 26110K   26169.58334491 -.00002664  00000+0 -80282-4 0  9996
2 69133  97.2851   5.9736 0001779 116.3501 221.3029 15.33419463  5875
STARLINK-37361          
1 69134U 26110L   26169.58334491 -.00017111  00000+0 -52871-3 0  9992
2 69134  97.2845   5.9817 0001889  91.0708 261.6723 15.33454666  5871
STARLINK-37372          
1 69135U 26110M   26169.58334491 -.00456260  00000+0 -13305-1 0  9992
2 69135  97.2848   5.9816 0000736  81.9045 276.2184 15.37200226  5874
STARLINK-37531          
1 69136U 26110N   26169.58334491 -.00013338  00000+0 -41142-3 0  9990
2 69136  97.2845   5.9938 0001585  88.5765 294.1384 15.33452861  5884
STARLINK-37662          
1 69137U 26110P   26169.58334491 -.00006627  00000+0 -18140-3 0  9996
2 69137  97.2850   5.9873 0001085  67.0105 300.7139 15.36989447  5884
STARLINK-37658          
1 69138U 26110Q   26169.52887255  .00033263  00000+0  61026-3 0  9997
2 69138  97.2826   5.9042 0001085 103.1548 256.9825 15.49208903  5811
STARLINK-37659          
1 69139U 26110R   26169.47197454  .00031263  00000+0  57354-3 0  9994
2 69139  97.2854   5.8294 0001898  90.7409 269.4060 15.49221228  5804
STARLINK-37653          
1 69140U 26110S   26169.47444016  .00032617  00000+0  59824-3 0  9993
2 69140  97.2844   5.8271 0002056  99.4158 260.7326 15.49219292  5801
STARLINK-37654          
1 69141U 26110T   26169.58334491 -.00004427  00000+0 -12049-3 0  9999
2 69141  97.2846   6.0038 0001139  81.1562 334.4508 15.36975576  5885
STARLINK-37655          
1 69142U 26110U   26169.58334491 -.00000758  00000+0 -18829-4 0  9996
2 69142  97.2851   6.0215 0001120  87.3252   2.2533 15.36983003  5885
STARLINK-37636          
1 69143U 26110V   26169.49497545  .00012080  00000+0  37571-3 0  9990
2 69143  97.2849   5.9517 0002030  78.5218 281.6253 15.33460575  5817
STARLINK-37638          
1 69144U 26110W   26169.49223930  .00016469  00000+0  51130-3 0  9998
2 69144  97.2848   5.9553 0001458  91.1866 268.9543 15.33446986  5810
STARLINK-37657          
1 69145U 26110X   26168.52679562  .00031248  00000+0  57347-3 0  9996
2 69145  97.2820   4.9711 0001302  96.0721 264.0679 15.49212420  5669
STARLINK-37639          
1 69146U 26110Y   26169.58334491 -.00010019  00000+0 -30820-3 0  9995
2 69146  97.2851   6.0587 0001572  75.8244  96.8137 15.33467778  5933
STARLINK-37661          
1 69147U 26110Z   26169.51713323  .00041006  00000+0  75079-3 0  9997
2 69147  97.2856   5.9191 0001975  97.5754 262.5722 15.49222794  5815
STARLINK-37395          
1 69148U 26111A   26169.58334491 -.01985156  00000+0 -32596-1 0  9992
2 69148  53.1602 145.3761 0001184  96.9744 188.9574 15.54898544  5771
STARLINK-37346          
1 69149U 26111B   26169.34203780  .00036044  00000+0  65269-3 0  9998
2 69149  53.1609 147.2988 0001033  61.3457 298.7656 15.49328669  4423
STARLINK-37332          
1 69150U 26111C   26169.56437933  .00005186  00000+0  10118-3 0  9999
2 69150  53.1609 146.5590 0001314  80.8889 279.2269 15.49327690  4453
STARLINK-37297          
1 69151U 26111D   26169.58334491 -.00006588  00000+0 -11049-3 0  9990
2 69151  53.1604 145.4227 0001481  93.2891 168.7664 15.49308461  5772
STARLINK-37317          
1 69152U 26111E   26169.58334491 -.02566223  00000+0 -48109-1 0  9995
2 69152  53.1604 145.2004 0000704  97.6271 273.9004 15.51600330  5771
