OBJECT_NAME,OBJECT_ID,EPOCH,MEAN_MOTION,ECCENTRICITY,INCLINATION,RA_OF_ASC_NODE,ARG_OF_PERICENTER,MEAN_ANOMALY,EPHEMERIS_TYPE,CLASSIFICATION_TYPE,NORAD_CAT_ID,ELEMENT_SET_NO,REV_AT_EPOCH,BSTAR,MEAN_MOTION_DOT,MEAN_MOTION_DDOT
SMILE,2026-109A,2026-06-07T09:11:54.544416,7.54049028,.3310191,69.9787,209.3069,288.5544,45.7342,0,U,69123,999,248,-.36778157E-3,-.41E-6,0
STARLINK-37726,2026-110A,2026-06-18T12:36:03.695328,15.49229381,.00011888,97.2840,5.7550,95.4062,264.7325,0,U,69124,999,580,.80541555E-3,.44021E-3,0
STARLINK-37722,2026-110B,2026-06-18T14:00:01.000224,15.33412892,.00017359,97.2851,5.9428,70.3726,192.3788,0,U,69125,999,592,-.51177278E-4,-.1725E-4,0
STARLINK-37715,2026-110C,2026-06-18T11:29:15.030816,15.33452532,.00023873,97.2833,5.8201,90.8618,269.2898,0,U,69126,999,580,.37614277E-3,.12091E-3,0
STARLINK-37706,2026-110D,2026-06-18T11:25:19.999488,15.33451472,.00022359,97.2842,5.8238,85.8620,274.2879,0,U,69127,999,580,.37932722E-3,.12194E-3,0
STARLINK-37723,2026-110E,2026-06-18T11:21:25.205760,15.33452538,.00023074,97.2841,5.8276,82.6350,277.5155,0,U,69128,999,580,.55384342E-3,.17853E-3,0
STARLINK-37720,2026-110F,2026-06-18T12:23:24.914976,15.49225361,.00017994,97.2854,5.7654,91.7793,268.3665,0,U,69129,999,580,.78347242E-3,.42808E-3,0
STARLINK-37533,2026-110G,2026-06-18T12:43:38.661312,15.33432731,.00011957,97.2860,5.9035,97.7640,262.3739,0,U,69130,999,581,.59319156E-3,.19116E-3,0
STARLINK-37530,2026-110H,2026-06-18T12:39:43.619616,15.33448440,.00024357,97.2845,5.9052,84.0723,276.0797,0,U,69131,999,581,.34653041E-3,.11131E-3,0
STARLINK-37660,2026-110J,2026-06-18T14:00:01.000224,15.36990869,.00017413,97.2851,5.9600,81.8762,223.8981,0,U,69132,999,587,-.21860453E-3,-.797E-4,0
STARLINK-37633,2026-110K,2026-06-18T14:00:01.000224,15.33419463,.00017792,97.2851,5.9736,116.3501,221.3029,0,U,69133,999,587,-.80281932E-4,-.2664E-4,0
STARLINK-37361,2026-110L,2026-06-18T14:00:01.000224,15.33454666,.00018898,97.2845,5.9817,91.0708,261.6723,0,U,69134,999,587,-.52871212E-3,-.17111E-3,0
STARLINK-37372,2026-110M,2026-06-18T14:00:01.000224,15.37200226,.00007365,97.2848,5.9816,81.9045,276.2184,0,U,69135,999,587,-.13304803E-1,-.45626E-2,0
STARLINK-37531,2026-110N,2026-06-18T14:00:01.000224,15.33452861,.00015858,97.2845,5.9938,88.5765,294.1384,0,U,69136,999,588,-.41142184E-3,-.13338E-3,0
STARLINK-37662,2026-110P,2026-06-18T14:00:01.000224,15.36989447,.00010851,97.2850,5.9873,67.0105,300.7139,0,U,69137,999,588,-.18139694E-3,-.6627E-4,0
STARLINK-37658,2026-110Q,2026-06-18T12:41:34.588320,15.49208903,.00010858,97.2826,5.9042,103.1548,256.9825,0,U,69138,999,581,.61026457E-3,.33263E-3,0
STARLINK-37659,2026-110R,2026-06-18T11:19:38.600256,15.49221228,.00018988,97.2854,5.8294,90.7409,269.4060,0,U,69139,999,580,.57354084E-3,.31263E-3,0
STARLINK-37653,2026-110S,2026-06-18T11:23:11.629824,15.49219292,.00020569,97.2844,5.8271,99.4158,260.7326,0,U,69140,999,580,.59823807E-3,.32617E-3,0
STARLINK-37654,2026-110T,2026-06-18T14:00:01.000224,15.36975576,.00011392,97.2846,6.0038,81.1562,334.4508,0,U,69141,999,588,-.12048806E-3,-.4427E-4,0
STARLINK-37655,2026-110U,2026-06-18T14:00:01.000224,15.36983003,.00011204,97.2851,6.0215,87.3252,2.2533,0,U,69142,999,588,-.18829073E-4,-.758E-5,0
STARLINK-37636,2026-110V,2026-06-18T11:52:45.878880,15.33460575,.000203,97.2849,5.9517,78.5218,281.6253,0,U,69143,999,581,.37571257E-3,.1208E-3,0
STARLINK-37638,2026-110W,2026-06-18T11:48:49.475520,15.33446986,.00014588,97.2848,5.9553,91.1866,268.9543,0,U,69144,999,581,.51130078E-3,.16469E-3,0
STARLINK-37657,2026-110X,2026-06-17T12:38:35.141568,15.49212420,.00013028,97.2820,4.9711,96.0721,264.0679,0,U,69145,999,566,.57347262E-3,.31248E-3,0
STARLINK-37639,2026-110Y,2026-06-18T14:00:01.000224,15.33467778,.00015726,97.2851,6.0587,75.8244,96.8137,0,U,69146,999,593,-.30819632E-3,-.10019E-3,0
STARLINK-37661,2026-110Z,2026-06-18T12:24:40.311072,15.49222794,.00019755,97.2856,5.9191,97.5754,262.5722,0,U,69147,999,581,.75078787E-3,.41006E-3,0
STARLINK-37395,2026-111A,2026-06-18T14:00:01.000224,15.54898544,.00011847,53.1602,145.3761,96.9744,188.9574,0,U,69148,999,577,-.32595854E-1,-.1985156E-1,0
STARLINK-37346,2026-111B,2026-06-18T08:12:32.065920,15.49328669,.00010333,53.1609,147.2988,61.3457,298.7656,0,U,69149,999,442,.65268985E-3,.36044E-3,0
STARLINK-37332,2026-111C,2026-06-18T13:32:42.374112,15.49327690,.00013149,53.1609,146.5590,80.8889,279.2269,0,U,69150,999,445,.10117713E-3,.5186E-4,0
STARLINK-37297,2026-111D,2026-06-18T14:00:01.000224,15.49308461,.0001481,53.1604,145.4227,93.2891,168.7664,0,U,69151,999,577,-.11049341E-3,-.6588E-4,0
STARLINK-37317,2026-111E,2026-06-18T14:00:01.000224,15.51600330,.00007041,53.1604,145.2004,97.6271,273.9004,0,U,69152,999,577,-.48108509E-1,-.2566223E-1,0
